TIANMU-1 08             
1 57400U 23101B   26066.00237819  .00000346  00000+0  14775-4 0  9993
2 57400  97.2717 118.7901 0006380 134.2174 225.9592 15.29204229146020
STARLINK-34203          
1 64246U 25119P   26068.05716670  .00069725  00000+0  25131-2 0  9996
2 64246  43.0031 310.5368 0002626 280.0912  79.9644 15.27661500 44087
